STARLINK-32826          
1 62970U 25029Y   26068.70541742  .00038165  00000+0  12937-2 0  9990
2 62970  53.1603 232.1196 0001583  32.5798 327.5300 15.30208080 61328
NUSHSAT1                
1 63211U 25052B   26068.64700493  .00023034  00000+0  74857-3 0  9997
2 63211  97.4095 325.7239 0005501  84.7512 275.4357 15.31903202 54882
