[{"OBJECT_NAME":"STARLINK-32826","OBJECT_ID":"2025-029Y","EPOCH":"2026-03-09T16:55:48.065088","MEAN_MOTION":15.3020808,"ECCENTRICITY":0.00015829,"INCLINATION":53.1603,"RA_OF_ASC_NODE":232.1196,"ARG_OF_PERICENTER":32.5798,"MEAN_ANOMALY":327.53,"EPHEMERIS_TYPE":0,"CLASSIFICATION_TYPE":"U","NORAD_CAT_ID":62970,"ELEMENT_SET_NO":999,"REV_AT_EPOCH":6132,"BSTAR":0.0012937487,"MEAN_MOTION_DOT":0.00038165,"MEAN_MOTION_DDOT":0},{"OBJECT_NAME":"NUSHSAT1","OBJECT_ID":"2025-052B","EPOCH":"2026-03-09T15:31:41.225952","MEAN_MOTION":15.31903202,"ECCENTRICITY":0.0005501,"INCLINATION":97.4095,"RA_OF_ASC_NODE":325.7239,"ARG_OF_PERICENTER":84.7512,"MEAN_ANOMALY":275.4357,"EPHEMERIS_TYPE":0,"CLASSIFICATION_TYPE":"U","NORAD_CAT_ID":63211,"ELEMENT_SET_NO":999,"REV_AT_EPOCH":5488,"BSTAR":0.00074857,"MEAN_MOTION_DOT":0.00023034,"MEAN_MOTION_DDOT":0}]
